NORAD_CAT_ID,OBJECT_NAME,OBJECT_TYPE,EPOCH,MEAN_MOTION,ECCENTRICITY,INCLINATION,RA_OF_ASC_NODE,ARG_OF_PERICENTER,MEAN_ANOMALY,BSTAR,MEAN_MOTION_DOT,MEAN_MOTION_DDOT,TLE_LINE0,TLE_LINE1,TLE_LINE2,SEMIMAJOR_AXIS,PERIOD,APOGEE,PERIGEE,DECAYED
54179.0,STARLINK-5122,PAYLOAD,2024-07-21 07:03:32,15.08842912,0.0001661,53.2176,161.3315,101.4316,258.6863,2.9253e-05,1.78e-06,0.0,0 STARLINK-5122,1 54179U 22141Y   24203.29412826  .00000178  00000-0  29253-4 0  9992,2 54179  53.2176 161.3315 0001661 101.4316 258.6863 15.08842912 95824,6917.871,95.437,540.886,538.587,0.0
54179.0,STARLINK-5122,PAYLOAD,2024-07-22 03:43:30,15.088745,0.0001609,53.2173,157.4654,102.868,257.2492,0.00037176,5.639e-05,0.0,0 STARLINK-5122,1 54179U 22141Y   24204.15521744  .00005639  00000-0  37176-3 0  9997,2 54179  53.2173 157.4654 0001609 102.8680 257.2492 15.08874500 96185,6917.775,95.435,540.753,538.527,0.0
54179.0,STARLINK-5122,PAYLOAD,2024-07-22 06:54:16,15.08873857,0.0001711,53.2174,156.8717,106.9929,253.1251,0.00034855,5.269e-05,0.0,0 STARLINK-5122,1 54179U 22141Y   24204.28769604  .00005269  00000-0  34855-3 0  9990,2 54179  53.2174 156.8717 0001711 106.9929 253.1251 15.08873857 95972,6917.777,95.435,540.826,538.458,0.0
54179.0,STARLINK-5122,PAYLOAD,2024-07-22 21:12:48,15.08833638,0.0001551,53.2174,154.1992,97.8628,262.254,3.8263e-05,3.21e-06,0.0,0 STARLINK-5122,1 54179U 22141Y   24204.88388940  .00000321  00000-0  38263-4 0  9998,2 54179  53.2174 154.1992 0001551  97.8628 262.2540 15.08833638 96060,6917.9,95.438,540.838,538.692,0.0
54179.0,STARLINK-5122,PAYLOAD,2024-07-23 01:58:57,15.08832504,0.000153,53.2169,153.3071,95.0268,265.0899,-0.0001081,-2.008e-05,0.0,0 STARLINK-5122,1 54179U 22141Y   24205.08260577 -.00002008  00000-0 -10810-3 0  9999,2 54179  53.2169 153.3071 0001530  95.0268 265.0899 15.08832504 96328,6917.903,95.438,540.827,538.71,0.0
54179.0,STARLINK-5122,PAYLOAD,2024-07-23 13:06:39,15.08830672,0.000143,53.2165,151.2275,84.0508,276.0647,-0.00019448,-3.381e-05,0.0,0 STARLINK-5122,1 54179U 22141Y   24205.54628885 -.00003381  00000-0 -19448-3 0  9991,2 54179  53.2165 151.2275 0001430  84.0508 276.0647 15.08830672 96160,6917.909,95.438,540.763,538.785,0.0
54179.0,STARLINK-5122,PAYLOAD,2024-07-24 05:00:30,15.08847495,0.0001456,53.2177,148.2551,96.0347,264.0812,-0.00022517,-3.871e-05,0.0,0 STARLINK-5122,1 54179U 22141Y   24206.20869117 -.00003871  00000-0 -22517-3 0  9995,2 54179  53.2177 148.2551 0001456  96.0347 264.0812 15.08847495 96496,6917.857,95.437,540.73,538.715,0.0
54179.0,STARLINK-5122,PAYLOAD,2024-07-25 06:26:41,15.08853402,0.0001564,53.2172,143.4954,88.5477,271.5694,0.0005962,9.217e-05,0.0,0 STARLINK-5122,1 54179U 22141Y   24207.26853061  .00009217  00000-0  59620-3 0  9996,2 54179  53.2172 143.4954 0001564  88.5477 271.5694 15.08853402 96659,6917.839,95.437,540.786,538.622,0.0
54179.0,STARLINK-5122,PAYLOAD,2024-07-25 23:55:55,15.08841504,0.0001777,53.216,140.2175,123.6348,236.4814,0.00017808,2.547e-05,0.0,0 STARLINK-5122,1 54179U 22141Y   24207.99717323  .00002547  00000-0  17808-3 0  9997,2 54179  53.2160 140.2175 0001777 123.6348 236.4814 15.08841504 96766,6917.876,95.437,540.97,538.511,0.0
54179.0,STARLINK-5122,PAYLOAD,2024-07-26 19:00:33,15.08852815,0.000175,53.2167,136.6601,81.742,278.377,0.00033094,4.985e-05,0.0,0 STARLINK-5122,1 54179U 22141Y   24208.79205255  .00004985  00000-0  33094-3 0  9995,2 54179  53.2167 136.6601 0001750  81.7420 278.3770 15.08852815 96653,6917.841,95.437,540.917,538.496,0.0
54179.0,STARLINK-5122,PAYLOAD,2024-07-28 01:12:53,15.08841076,0.0001599,53.2196,131.0079,83.6501,276.4673,0.00013756,1.902e-05,0.0,0 STARLINK-5122,1 54179U 22141Y   24210.05061776  .00001902  00000-0  13756-3 0  9994,2 54179  53.2196 131.0079 0001599  83.6501 276.4673 15.08841076 97070,6917.877,95.437,540.848,538.636,0.0
54179.0,STARLINK-5122,PAYLOAD,2024-07-28 12:20:35,15.08833168,0.0001618,53.2174,128.9243,87.098,273.0198,-1.7083e-05,-5.6e-06,0.0,0 STARLINK-5122,1 54179U 22141Y   24210.51430197 -.00000560  00000-0 -17083-4 0  9991,2 54179  53.2174 128.9243 0001618  87.0980 273.0198 15.08833168 97141,6917.901,95.438,540.886,538.647,0.0
54179.0,STARLINK-5122,PAYLOAD,2024-07-28 21:52:54,15.08839056,0.0001563,53.2167,127.1409,85.2915,274.8255,6.1235e-05,6.87e-06,0.0,0 STARLINK-5122,1 54179U 22141Y   24210.91174097  .00000687  00000-0  61235-4 0  9995,2 54179  53.2167 127.1409 0001563  85.2915 274.8255 15.08839056 96970,6917.883,95.438,540.83,538.667,0.0
54179.0,STARLINK-5122,PAYLOAD,2024-07-29 01:03:40,15.08842514,0.00014,53.2175,126.5452,92.1506,267.9647,8.9779e-05,1.141e-05,0.0,0 STARLINK-5122,1 54179U 22141Y   24211.04421666  .00001141  00000-0  89779-4 0  9996,2 54179  53.2175 126.5452 0001400  92.1506 267.9647 15.08842514 97223,6917.873,95.437,540.706,538.769,0.0
54179.0,STARLINK-5122,PAYLOAD,2024-07-29 21:43:41,15.08834272,0.0001364,53.2175,122.6802,85.2525,274.8623,0.00011788,1.588e-05,0.0,0 STARLINK-5122,1 54179U 22141Y   24211.90534437  .00001588  00000-0  11788-3 0  9991,2 54179  53.2175 122.6802 0001364  85.2525 274.8623 15.08834272 97124,6917.898,95.438,540.706,538.819,0.0
54179.0,STARLINK-5122,PAYLOAD,2024-07-30 00:54:27,15.08838873,0.0001385,53.2176,122.0846,85.1227,274.9923,9.4645e-05,1.219e-05,0.0,0 STARLINK-5122,1 54179U 22141Y   24212.03782248  .00001219  00000-0  94645-4 0  9996,2 54179  53.2176 122.0846 0001385  85.1227 274.9923 15.08838873 97370,6917.884,95.438,540.707,538.791,0.0
54179.0,STARLINK-5122,PAYLOAD,2024-07-30 23:09:51,15.08847182,0.0001463,53.2168,117.9235,90.4273,269.6887,0.00017022,2.423e-05,0.0,0 STARLINK-5122,1 54179U 22141Y   24212.96517737  .00002423  00000-0  17022-3 0  9998,2 54179  53.2168 117.9235 0001463  90.4273 269.6887 15.08847182 97286,6917.858,95.437,540.736,538.711,0.0
54179.0,STARLINK-5122,PAYLOAD,2024-07-31 00:45:14,15.08847795,0.0001392,53.2168,117.6298,83.8696,276.2455,0.00021958,3.209e-05,0.0,0 STARLINK-5122,1 54179U 22141Y   24213.03141661  .00003209  00000-0  21958-3 0  9992,2 54179  53.2168 117.6298 0001392  83.8696 276.2455 15.08847795 97520,6917.857,95.437,540.685,538.759,0.0
54179.0,STARLINK-5122,PAYLOAD,2024-07-31 10:17:33,15.08845683,0.0001087,53.2149,115.8415,75.8491,284.2622,8.0481e-05,9.93e-06,0.0,0 STARLINK-5122,1 54179U 22141Y   24213.42885845  .00000993  00000-0  80481-4 0  9998,2 54179  53.2149 115.8415 0001087  75.8491 284.2622 15.08845683 97355,6917.863,95.437,540.48,538.976,0.0
54179.0,STARLINK-5122,PAYLOAD,2024-07-31 21:25:16,15.08834942,0.0001481,53.2174,113.7618,109.9788,250.1363,1.2662e-05,-8.6e-07,0.0,0 STARLINK-5122,1 54179U 22141Y   24213.89254896 -.00000086  00000-0  12662-4 0  9995,2 54179  53.2174 113.7618 0001481 109.9788 250.1363 15.08834942 97654,6917.896,95.438,540.785,538.736,0.0
54179.0,STARLINK-5122,PAYLOAD,2024-07-31 23:00:39,15.08835645,0.0001578,53.2178,113.4654,112.2277,247.8883,1.697e-05,-1.8e-07,0.0,0 STARLINK-5122,1 54179U 22141Y   24213.95878849 -.00000018  00000-0  16970-4 0  9993,2 54179  53.2178 113.4654 0001578 112.2277 247.8883 15.08835645 97439,6917.894,95.438,540.85,538.667,0.0
54179.0,STARLINK-5122,PAYLOAD,2024-08-01 10:08:20,15.088471,0.0001486,53.2183,111.3852,108.5813,251.534,0.00010259,1.345e-05,0.0,0 STARLINK-5122,1 54179U 22141Y   24214.42245909  .00001345  00000-0  10259-3 0  9997,2 54179  53.2183 111.3852 0001486 108.5813 251.5340 15.08847100 97736,6917.859,95.437,540.752,538.696,0.0
54179.0,STARLINK-5122,PAYLOAD,2024-08-01 22:51:25,15.08850791,0.0001385,53.2166,109.0034,93.6454,266.4696,9.1499e-05,1.169e-05,0.0,0 STARLINK-5122,1 54179U 22141Y   24214.95237520  .00001169  00000-0  91499-4 0  9995,2 54179  53.2166 109.0034 0001385  93.6454 266.4696 15.08850791 97588,6917.847,95.437,540.671,538.754,0.0
54179.0,STARLINK-5122,PAYLOAD,2024-08-02 00:26:47,15.0886136,0.000103,53.2145,108.7041,112.6123,247.4978,0.00022847,3.352e-05,0.0,0 STARLINK-5122,1 54179U 22141Y   24215.01860709  .00003352  00000-0  22847-3 0  9990,2 54179  53.2145 108.7041 0001030 112.6123 247.4978 15.08861360 97824,6917.815,95.436,540.393,538.968,0.0
54179.0,STARLINK-5122,PAYLOAD,2024-08-02 09:59:06,15.08855708,0.0001317,53.2175,106.9183,76.7413,283.3726,5.8049e-06,-1.96e-06,0.0,0 STARLINK-5122,1 54179U 22141Y   24215.41605147 -.00000196  00000-0  58049-5 0  9996,2 54179  53.2175 106.9183 0001317  76.7413 283.3726 15.08855708 97889,6917.832,95.437,540.608,538.786,0.0
54179.0,STARLINK-5122,PAYLOAD,2024-08-02 21:06:51,15.08821993,0.0001249,53.2178,104.8437,98.3609,261.7524,2.5414e-05,1.16e-06,0.0,0 STARLINK-5122,1 54179U 22141Y   24215.87975806  .00000116  00000-0  25414-4 0  9998,2 54179  53.2178 104.8437 0001249  98.3609 261.7524 15.08821993 97955,6917.935,95.439,540.664,538.936,0.0
54179.0,STARLINK-5122,PAYLOAD,2024-08-02 22:42:13,15.08828024,0.0001437,53.2166,104.5422,84.9217,275.194,-0.00013422,-2.423e-05,0.0,0 STARLINK-5122,1 54179U 22141Y   24215.94598901 -.00002423  00000-0 -13422-3 0  9993,2 54179  53.2166 104.5422 0001437  84.9217 275.1940 15.08828024 97737,6917.917,95.438,540.776,538.788,0.0
54179.0,STARLINK-5122,PAYLOAD,2024-08-03 00:17:36,15.08828947,0.0001393,53.2163,104.2444,84.3557,275.7594,-0.0001157,-2.128e-05,0.0,0 STARLINK-5122,1 54179U 22141Y   24216.01222887 -.00002128  00000-0 -11570-3 0  9993,2 54179  53.2163 104.2444 0001393  84.3557 275.7594 15.08828947 97978,6917.914,95.438,540.743,538.816,0.0
54179.0,STARLINK-5122,PAYLOAD,2024-08-03 09:49:55,15.08838945,0.0001297,53.2159,102.4634,87.7278,272.3863,3.84e-05,3.23e-06,0.0,0 STARLINK-5122,1 54179U 22141Y   24216.40966561  .00000323  00000-0  38400-4 0  9995,2 54179  53.2159 102.4634 0001297  87.7278 272.3863 15.08838945 98033,6917.884,95.438,540.646,538.851,0.0
54179.0,STARLINK-5122,PAYLOAD,2024-08-03 22:32:59,15.08851697,0.0001122,53.2139,100.0836,87.2626,272.8494,0.00041945,6.396e-05,0.0,0 STARLINK-5122,1 54179U 22141Y   24216.93958164  .00006396  00000-0  41945-3 0  9996,2 54179  53.2139 100.0836 0001122  87.2626 272.8494 15.08851697 97884,6917.845,95.437,540.486,538.933,0.0
